{
"type": "FeatureCollection",
"name": "flight_track",
"crs": { "type": "name", "properties": { "name": "urn:ogc:def:crs:OGC:1.3:CRS84" } },
"features": [
{ "type": "Feature", "properties": { "segment": 0.0 }, "geometry": { "type": "LineString", "coordinates": [ [ 32.556042478538053, 0.193032393038564 ], [ 32.440424, 0.211581 ], [ 32.35969, 0.171165 ], [ 32.30095, 0.145769 ], [ 32.275851, 0.132793 ], [ 32.27554, 0.131438 ], [ 32.25961, 0.125001 ], [ 32.159759, 0.090289 ], [ 32.140618, 0.079355 ], [ 32.126063, 0.072845 ], [ 32.015751, 0.038006 ], [ 31.970594, 0.019738 ], [ 31.888908, -0.004241 ], [ 31.820513, -0.029206 ], [ 31.765946, -0.046918 ], [ 31.759227, -0.050242 ], [ 31.747618, -0.059807 ] ] } },
{ "type": "Feature", "properties": { "segment": 1.0 }, "geometry": { "type": "LineString", "coordinates": [ [ 31.728639, -0.079525 ], [ 31.702427, -0.110675 ], [ 31.677346, -0.145426 ], [ 31.661801, -0.161065 ], [ 31.643149, -0.172537 ], [ 31.610063, -0.188305 ], [ 31.579896, -0.200215 ], [ 31.552012, -0.207785 ], [ 31.521095, -0.213851 ], [ 31.434107, -0.226961 ], [ 31.223032, -0.273879 ], [ 31.178317, -0.281075 ], [ 31.158223, -0.286903 ], [ 31.098564, -0.323153 ], [ 31.051879, -0.346385 ], [ 30.986229, -0.367498 ], [ 30.850292, -0.425948 ], [ 30.782687, -0.449694 ], [ 30.728077, -0.473913 ], [ 30.702355, -0.488269 ], [ 30.666858, -0.513321 ], [ 30.639603, -0.539275 ], [ 30.624756, -0.559106 ], [ 30.619099, -0.560159 ], [ 30.614331, -0.558973 ], [ 30.595765, -0.550989 ], [ 30.577006, -0.540065 ], [ 30.571006, -0.540759 ], [ 30.56695, -0.545268 ], [ 30.566701, -0.548577 ], [ 30.568876, -0.550702 ], [ 30.579739, -0.550517 ], [ 30.604689, -0.55722 ] ] } },
{ "type": "Feature", "properties": { "segment": 2.0 }, "geometry": { "type": "LineString", "coordinates": [ [ 30.603628, -0.556383 ], [ 30.592976, -0.553539 ], [ 30.610325, -0.557165 ], [ 30.671065, -0.508148 ], [ 30.679797, -0.502452 ], [ 30.78308, -0.46901 ], [ 30.901902, -0.435291 ], [ 30.975732, -0.40998 ], [ 31.039848, -0.381429 ], [ 31.103089, -0.347977 ], [ 31.125475, -0.342265 ], [ 31.162075, -0.327459 ], [ 31.198286, -0.317262 ], [ 31.263236, -0.294027 ], [ 31.317098, -0.278204 ], [ 31.409575, -0.247565 ], [ 31.470737, -0.230826 ], [ 31.541476, -0.216445 ], [ 31.596134, -0.209084 ], [ 31.621475, -0.200895 ], [ 31.757146, -0.150702 ], [ 31.867815, -0.102672 ], [ 31.921033, -0.082504 ], [ 31.963851, -0.064148 ], [ 32.002993, -0.05371 ], [ 32.032185, -0.050354 ], [ 32.110237, -0.021439 ], [ 32.187625, 0.015087 ], [ 32.240038, 0.036203 ], [ 32.32879, 0.06605 ], [ 32.354538, 0.079599 ], [ 32.36756, 0.084691 ], [ 32.387495, 0.089192 ], [ 32.403189, 0.09092 ], [ 32.414571, 0.09063 ], [ 32.425359, 0.087685 ], [ 32.429748, 0.085003 ], [ 32.43217, 0.081506 ], [ 32.43691, 0.05083 ], [ 32.439789, 0.050708 ], [ 32.441136, 0.048314 ] ] } }
]
}
